ONEWEB-0235             
1 48771U 21045E   25061.34469756  .00000191  00000+0  47325-3 0  9991
2 48771  87.9135 353.1701 0002405  84.8547 275.2858 13.15548638182348
ONEWEB-0242             
1 48772U 21045F   25061.87076778 -.00001151  00000+0 -30925-2 0  9994
2 48772  87.9153 353.0505 0001999  77.5533 282.5821 13.15542958183588
ONEWEB-0241             
1 48773U 21045G   25061.85808890  .00000099  00000+0  22864-3 0  9993
2 48773  87.9138 353.1243 0002189  74.0220 286.1151 13.15548329183493
ONEWEB-0243             
1 48774U 21045H   25061.35737398  .00000071  00000+0  15537-3 0  9992
2 48774  87.9145 353.1863 0002320  85.7241 274.4154 13.15549722182321
ONEWEB-0222             
1 48775U 21045J   25061.34073613  .00000152  00000+0  37101-3 0  9996
2 48775  87.9131 353.1654 0002015  76.6220 283.5135 13.15549892182364
ONEWEB-0244             
1 48776U 21045K   25061.21474899 -.00000071  00000+0 -22336-3 0  9990
2 48776  87.9132 353.1690 0001951  84.7273 275.4080 13.15549376182919
ONEWEB-0247             
1 48777U 21045L   25061.36369811 -.00000131  00000+0 -38328-3 0  9999
2 48777  87.9143 353.2006 0002838  87.6574 272.4881 13.15549123182371
ONEWEB-0245             
1 48778U 21045M   25061.35895828  .00000074  00000+0  16235-3 0  9998
2 48778  87.9136 353.1739 0002014  72.3575 287.7775 13.15549138182348
